[Satellite]
VERSION=1.1
NAME=IRIDIUM 30 [+]
NICKNAME=IRIDIUM 30 [+]
TLE1=1 24949U 97051F   15055.57329266  .00000261  00000-0  86226-4 0  9993
TLE2=2 24949  86.3934 279.8138 0001875 105.2992 254.8411 14.34219956913484
